{"type": "Feature", "properties": {"name": "Khon Kaen"}, "geometry": {"type": "Polygon", "coordinates": [[[103.11311730272138, 16.912818101474244], [103.13420128755939, 16.8853520777362], [103.12769005655082, 16.826156724853007], [103.16541385276713, 16.863312079388947], [103.19440433079518, 16.822125963442403], [103.16882449655327, 16.754481513211232], [103.16262332570585, 16.643428859854026], [103.16293338406842, 16.616298732900162], [103.09130984927015, 16.513100897688304], [103.01798099212908, 16.467599799491154], [102.94062137177889, 16.44550812430046], [102.95328209769059, 16.4030817731053], [102.851324496828, 16.268929755104097], [102.86016116690433, 16.072869371524234], [102.9114758650191, 15.996491604004348], [102.90718672119027, 15.929570624184919], [102.94646080921893, 15.789217434437035], [102.89648969914026, 15.763379217776674], [102.86858442583059, 15.636539415561572], [102.81763146382093, 15.621294867264282], [102.78926110161854, 15.639510809776084], [102.72409712098533, 15.669664007787702], [102.69241946778425, 15.719480089134748], [102.59604292194325, 15.704959011249372], [102.50777957576679, 15.716457017177532], [102.4241671077258, 15.695424710082307], [102.37032026586752, 15.735603136575548], [102.36939008988071, 15.763379217776674], [102.33166629366451, 15.805831407393526], [102.3348185568309, 15.863941555558284], [102.39248945542403, 15.98380504057016], [102.27998986214237, 16.0491757267784], [102.26696740102477, 16.073256944252535], [102.32996097222104, 16.12989431407135], [102.40396162293052, 16.238440660308214], [102.45315758665333, 16.40680247615336], [102.40535688691074, 16.45863393820565], [102.37259402899127, 16.437601630211077], [102.3009188173495, 16.450804959381315], [102.20361209462243, 16.50511688923305], [102.07715986513563, 16.503876654883697], [101.98641605026046, 16.57694713050563], [101.95597863230802, 16.632964381800804], [101.83495242731266, 16.660352892072353], [101.78854699065113, 16.642472846344788], [101.75144331295854, 16.670352281232766], [101.7868416692076, 16.725077623133814], [101.79056237225564, 16.766496283077004], [102.07126875175152, 16.88540375457964], [102.19513715975216, 16.85703339327648], [102.27549401183916, 16.889150295150046], [102.33662723196119, 16.819878037841107], [102.42137658066468, 16.78954397177685], [102.52142215360948, 16.790241603766987], [102.56348676959868, 16.761251125738852], [102.61175255733463, 16.770036118971717], [102.67583133324939, 16.943694769897718], [102.71712080288273, 17.074513658478537], [102.73014326400039, 17.042732652489974], [102.83189415928803, 16.97588918703633], [102.83737186062285, 16.873879910229675], [102.88904829304425, 16.877936510061886], [102.95545250892616, 16.841065375466712], [103.11311730272138, 16.912818101474244]]]}}